[{"OBJECT_NAME":"ONEWEB-0635","OBJECT_ID":"2023-043AG","EPOCH":"2026-06-13T06:21:54.144000","MEAN_MOTION":13.15550713,"ECCENTRICITY":0.0001969,"INCLINATION":87.9011,"RA_OF_ASC_NODE":259.9726,"ARG_OF_PERICENTER":92.4947,"MEAN_ANOMALY":267.6409,"EPHEMERIS_TYPE":0,"CLASSIFICATION_TYPE":"U","NORAD_CAT_ID":56076,"ELEMENT_SET_NO":999,"REV_AT_EPOCH":15591,"BSTAR":0.00038707000000000005,"MEAN_MOTION_DOT":1.59e-06,"MEAN_MOTION_DDOT":0.0},{"OBJECT_NAME":"ONEWEB-0636","OBJECT_ID":"2023-043AH","EPOCH":"2026-06-13T06:10:30.938592","MEAN_MOTION":13.15549719,"ECCENTRICITY":0.0002,"INCLINATION":87.9003,"RA_OF_ASC_NODE":259.9807,"ARG_OF_PERICENTER":94.4665,"MEAN_ANOMALY":265.6694,"EPHEMERIS_TYPE":0,"CLASSIFICATION_TYPE":"U","NORAD_CAT_ID":56077,"ELEMENT_SET_NO":999,"REV_AT_EPOCH":15589,"BSTAR":0.0005444,"MEAN_MOTION_DOT":2.18e-06,"MEAN_MOTION_DDOT":0.0},{"OBJECT_NAME":"ONEWEB-0637","OBJECT_ID":"2023-043AJ","EPOCH":"2026-06-13T06:01:23.632608","MEAN_MOTION":13.15548903,"ECCENTRICITY":0.0002269,"INCLINATION":87.8999,"RA_OF_ASC_NODE":259.9988,"ARG_OF_PERICENTER":97.5572,"MEAN_ANOMALY":262.5816,"EPHEMERIS_TYPE":0,"CLASSIFICATION_TYPE":"U","NORAD_CAT_ID":56078,"ELEMENT_SET_NO":999,"REV_AT_EPOCH":15591,"BSTAR":0.00047002000000000003,"MEAN_MOTION_DOT":1.9e-06,"MEAN_MOTION_DDOT":0.0},{"OBJECT_NAME":"ONEWEB-0647","OBJECT_ID":"2023-043AK","EPOCH":"2026-06-13T05:54:33.169536","MEAN_MOTION":13.15548576,"ECCENTRICITY":0.000184,"INCLINATION":87.8999,"RA_OF_ASC_NODE":260.0122,"ARG_OF_PERICENTER":97.4586,"MEAN_ANOMALY":262.6754,"EPHEMERIS_TYPE":0,"CLASSIFICATION_TYPE":"U","NORAD_CAT_ID":56079,"ELEMENT_SET_NO":999,"REV_AT_EPOCH":15590,"BSTAR":0.00036832,"MEAN_MOTION_DOT":1.51e-06,"MEAN_MOTION_DDOT":0.0},{"OBJECT_NAME":"ONEWEB-0651","OBJECT_ID":"2023-043AL","EPOCH":"2026-06-13T05:47:42.130176","MEAN_MOTION":13.15548989,"ECCENTRICITY":0.0002113,"INCLINATION":87.8998,"RA_OF_ASC_NODE":260.0067,"ARG_OF_PERICENTER":94.888,"MEAN_ANOMALY":265.2491,"EPHEMERIS_TYPE":0,"CLASSIFICATION_TYPE":"U","NORAD_CAT_ID":56080,"ELEMENT_SET_NO":999,"REV_AT_EPOCH":15710,"BSTAR":0.00049765,"MEAN_MOTION_DOT":2e-06,"MEAN_MOTION_DDOT":0.0},{"OBJECT_NAME":"ONEWEB-0718","OBJECT_ID":"2023-043AM","EPOCH":"2026-06-12T18:43:41.333664","MEAN_MOTION":13.1554999,"ECCENTRICITY":0.0002308,"INCLINATION":87.8998,"RA_OF_ASC_NODE":260.0792,"ARG_OF_PERICENTER":111.6324,"MEAN_ANOMALY":248.5052,"EPHEMERIS_TYPE":0,"CLASSIFICATION_TYPE":"U","NORAD_CAT_ID":56081,"ELEMENT_SET_NO":999,"REV_AT_EPOCH":15585,"BSTAR":-9.862400000000001e-05,"MEAN_MOTION_DOT":-2.4e-07,"MEAN_MOTION_DDOT":0.0},{"OBJECT_NAME":"ONEWEB-0561","OBJECT_ID":"2023-068A","EPOCH":"2026-06-13T06:11:59.768160","MEAN_MOTION":13.20772146,"ECCENTRICITY":0.0001776,"INCLINATION":87.9192,"RA_OF_ASC_NODE":275.226,"ARG_OF_PERICENTER":90.1508,"MEAN_ANOMALY":269.9829,"EPHEMERIS_TYPE":0,"CLASSIFICATION_TYPE":"U","NORAD_CAT_ID":56710,"ELEMENT_SET_NO":999,"REV_AT_EPOCH":14898,"BSTAR":0.0005985700000000001,"MEAN_MOTION_DOT":2.56e-06,"MEAN_MOTION_DDOT":0.0},{"OBJECT_NAME":"ONEWEB-0668","OBJECT_ID":"2023-068B","EPOCH":"2026-06-12T22:40:56.826624","MEAN_MOTION":13.1659389,"ECCENTRICITY":0.0002591,"INCLINATION":87.91,"RA_OF_ASC_NODE":229.6147,"ARG_OF_PERICENTER":101.8115,"MEAN_ANOMALY":258.3307,"EPHEMERIS_TYPE":0,"CLASSIFICATION_TYPE":"U","NORAD_CAT_ID":56711,"ELEMENT_SET_NO":999,"REV_AT_EPOCH":15122,"BSTAR":0.00013995,"MEAN_MOTION_DOT":6.6e-07,"MEAN_MOTION_DDOT":0.0},{"OBJECT_NAME":"ONEWEB-0676","OBJECT_ID":"2023-068C","EPOCH":"2026-06-13T04:20:38.000832","MEAN_MOTION":13.16593052,"ECCENTRICITY":0.0002078,"INCLINATION":87.9101,"RA_OF_ASC_NODE":229.5738,"ARG_OF_PERICENTER":88.8734,"MEAN_ANOMALY":271.2635,"EPHEMERIS_TYPE":0,"CLASSIFICATION_TYPE":"U","NORAD_CAT_ID":56712,"ELEMENT_SET_NO":999,"REV_AT_EPOCH":15117,"BSTAR":0.00021449,"MEAN_MOTION_DOT":9.5e-07,"MEAN_MOTION_DDOT":0.0},{"OBJECT_NAME":"ONEWEB-0677","OBJECT_ID":"2023-068D","EPOCH":"2026-06-13T05:55:00.032160","MEAN_MOTION":13.20770047,"ECCENTRICITY":0.0002287,"INCLINATION":87.9192,"RA_OF_ASC_NODE":275.2198,"ARG_OF_PERICENTER":93.7769,"MEAN_ANOMALY":266.3626,"EPHEMERIS_TYPE":0,"CLASSIFICATION_TYPE":"U","NORAD_CAT_ID":56713,"ELEMENT_SET_NO":999,"REV_AT_EPOCH":14928,"BSTAR":6.787400000000001e-05,"MEAN_MOTION_DOT":4.1e-07,"MEAN_MOTION_DDOT":0.0},{"OBJECT_NAME":"ONEWEB-0678","OBJECT_ID":"2023-068E","EPOCH":"2026-06-13T06:44:44.104128","MEAN_MOTION":13.15548662,"ECCENTRICITY":0.000169,"INCLINATION":87.901,"RA_OF_ASC_NODE":259.9708,"ARG_OF_PERICENTER":100.4682,"MEAN_ANOMALY":259.6639,"EPHEMERIS_TYPE":0,"CLASSIFICATION_TYPE":"U","NORAD_CAT_ID":56714,"ELEMENT_SET_NO":999,"REV_AT_EPOCH":14877,"BSTAR":4.1739e-06,"MEAN_MOTION_DOT":1.4e-07,"MEAN_MOTION_DDOT":0.0},{"OBJECT_NAME":"ONEWEB-0679","OBJECT_ID":"2023-068F","EPOCH":"2026-06-13T05:10:48.381600","MEAN_MOTION":13.16594258,"ECCENTRICITY":0.0002588,"INCLINATION":87.9098,"RA_OF_ASC_NODE":229.5581,"ARG_OF_PERICENTER":93.4225,"MEAN_ANOMALY":266.7202,"EPHEMERIS_TYPE":0,"CLASSIFICATION_TYPE":"U","NORAD_CAT_ID":56715,"ELEMENT_SET_NO":999,"REV_AT_EPOCH":15120,"BSTAR":-9.9585e-05,"MEAN_MOTION_DOT":-2.5e-07,"MEAN_MOTION_DDOT":0.0},{"OBJECT_NAME":"ONEWEB-0680","OBJECT_ID":"2023-068G","EPOCH":"2026-06-13T05:38:56.082048","MEAN_MOTION":13.21828122,"ECCENTRICITY":0.000261,"INCLINATION":87.9262,"RA_OF_ASC_NODE":244.7568,"ARG_OF_PERICENTER":99.8534,"MEAN_ANOMALY":260.2895,"EPHEMERIS_TYPE":0,"CLASSIFICATION_TYPE":"U","NORAD_CAT_ID":56716,"ELEMENT_SET_NO":999,"REV_AT_EPOCH":15057,"BSTAR":2.7694000000000003e-05,"MEAN_MOTION_DOT":2.4e-07,"MEAN_MOTION_DDOT":0.0},{"OBJECT_NAME":"ONEWEB-0681","OBJECT_ID":"2023-068H","EPOCH":"2026-06-13T05:11:04.713792","MEAN_MOTION":13.21827257,"ECCENTRICITY":0.0002144,"INCLINATION":87.9257,"RA_OF_ASC_NODE":244.7622,"ARG_OF_PERICENTER":72.8245,"MEAN_ANOMALY":287.3124,"EPHEMERIS_TYPE":0,"CLASSIFICATION_TYPE":"U","NORAD_CAT_ID":56717,"ELEMENT_SET_NO":999,"REV_AT_EPOCH":15056,"BSTAR":1.7386e-05,"MEAN_MOTION_DOT":2e-07,"MEAN_MOTION_DDOT":0.0},{"OBJECT_NAME":"ONEWEB-0682","OBJECT_ID":"2023-068J","EPOCH":"2026-06-13T07:18:58.353120","MEAN_MOTION":13.15548899,"ECCENTRICITY":0.0002537,"INCLINATION":87.9006,"RA_OF_ASC_NODE":259.967,"ARG_OF_PERICENTER":101.0104,"MEAN_ANOMALY":259.1312,"EPHEMERIS_TYPE":0,"CLASSIFICATION_TYPE":"U","NORAD_CAT_ID":56718,"ELEMENT_SET_NO":999,"REV_AT_EPOCH":14894,"BSTAR":-0.00011973000000000001,"MEAN_MOTION_DOT":-3.2e-07,"MEAN_MOTION_DDOT":0.0},{"OBJECT_NAME":"ONEWEB-0683","OBJECT_ID":"2023-068K","EPOCH":"2026-06-13T06:03:40.653504","MEAN_MOTION":13.15549008,"ECCENTRICITY":0.0002246,"INCLINATION":87.901,"RA_OF_ASC_NODE":259.9771,"ARG_OF_PERICENTER":104.263,"MEAN_ANOMALY":255.875,"EPHEMERIS_TYPE":0,"CLASSIFICATION_TYPE":"U","NORAD_CAT_ID":56719,"ELEMENT_SET_NO":999,"REV_AT_EPOCH":14890,"BSTAR":0.0005263,"MEAN_MOTION_DOT":2.11e-06,"MEAN_MOTION_DDOT":0.0}]