ONEWEB-0635             
1 56076U 23043AG  26164.26521000  .00000159  00000+0  38707-3 0  9993
2 56076  87.9011 259.9726 0001969  92.4947 267.6409 13.15550713155918
ONEWEB-0636             
1 56077U 23043AH  26164.25730253  .00000218  00000+0  54440-3 0  9993
2 56077  87.9003 259.9807 0002000  94.4665 265.6694 13.15549719155891
ONEWEB-0637             
1 56078U 23043AJ  26164.25096797  .00000190  00000+0  47002-3 0  9997
2 56078  87.8999 259.9988 0002269  97.5572 262.5816 13.15548903155912
ONEWEB-0647             
1 56079U 23043AK  26164.24621724  .00000151  00000+0  36832-3 0  9997
2 56079  87.8999 260.0122 0001840  97.4586 262.6754 13.15548576155901
ONEWEB-0651             
1 56080U 23043AL  26164.24145984  .00000200  00000+0  49765-3 0  9992
2 56080  87.8998 260.0067 0002113  94.8880 265.2491 13.15548989157101
ONEWEB-0718             
1 56081U 23043AM  26163.78033951 -.00000024  00000+0 -98624-4 0  9996
2 56081  87.8998 260.0792 0002308 111.6324 248.5052 13.15549990155854
ONEWEB-0561             
1 56710U 23068A   26164.25833065  .00000256  00000+0  59857-3 0  9998
2 56710  87.9192 275.2260 0001776  90.1508 269.9829 13.20772146148983
ONEWEB-0668             
1 56711U 23068B   26163.94510216  .00000066  00000+0  13995-3 0  9996
2 56711  87.9100 229.6147 0002591 101.8115 258.3307 13.16593890151226
ONEWEB-0676             
1 56712U 23068C   26164.18099538  .00000095  00000+0  21449-3 0  9998
2 56712  87.9101 229.5738 0002078  88.8734 271.2635 13.16593052151176
ONEWEB-0677             
1 56713U 23068D   26164.24652815  .00000041  00000+0  67874-4 0  9993
2 56713  87.9192 275.2198 0002287  93.7769 266.3626 13.20770047149280
ONEWEB-0678             
1 56714U 23068E   26164.28106602  .00000014  00000+0  41739-5 0  9999
2 56714  87.9010 259.9708 0001690 100.4682 259.6639 13.15548662148775
ONEWEB-0679             
1 56715U 23068F   26164.21583775 -.00000025  00000+0 -99585-4 0  9998
2 56715  87.9098 229.5581 0002588  93.4225 266.7202 13.16594258151205
ONEWEB-0680             
1 56716U 23068G   26164.23537132  .00000024  00000+0  27694-4 0  9996
2 56716  87.9262 244.7568 0002610  99.8534 260.2895 13.21828122150574
ONEWEB-0681             
1 56717U 23068H   26164.21602678  .00000020  00000+0  17386-4 0  9996
2 56717  87.9257 244.7622 0002144  72.8245 287.3124 13.21827257150564
ONEWEB-0682             
1 56718U 23068J   26164.30484205 -.00000032  00000+0 -11973-3 0  9991
2 56718  87.9006 259.9670 0002537 101.0104 259.1312 13.15548899148943
ONEWEB-0683             
1 56719U 23068K   26164.25255386  .00000211  00000+0  52630-3 0  9994
2 56719  87.9010 259.9771 0002246 104.2630 255.8750 13.15549008148905
